STARLINK-32320          
1 61638U 24191T   26068.24637508 -.00000550  00000+0 -10455-4 0  9998
2 61638  43.0044 160.9013 0001798 261.6310  98.4338 15.27570810 77426
BLUEBON                 
1 62688U 25009CH  26068.70316231  .00010452  00000+0  37313-3 0  9992
2 62688  97.4017 152.2033 0001193  43.3900 316.7434 15.29047253 63767
