[{"OBJECT_NAME":"STARLINK-32320","OBJECT_ID":"2024-191T","EPOCH":"2026-03-09T05:54:46.806912","MEAN_MOTION":15.2757081,"ECCENTRICITY":0.00017983,"INCLINATION":43.0044,"RA_OF_ASC_NODE":160.9013,"ARG_OF_PERICENTER":261.631,"MEAN_ANOMALY":98.4338,"EPHEMERIS_TYPE":0,"CLASSIFICATION_TYPE":"U","NORAD_CAT_ID":61638,"ELEMENT_SET_NO":999,"REV_AT_EPOCH":7742,"BSTAR":-1.0454742e-5,"MEAN_MOTION_DOT":-5.5e-6,"MEAN_MOTION_DDOT":0},{"OBJECT_NAME":"BLUEBON","OBJECT_ID":"2025-009CH","EPOCH":"2026-03-09T16:52:33.225312","MEAN_MOTION":15.29047254,"ECCENTRICITY":0.00011933,"INCLINATION":97.4017,"RA_OF_ASC_NODE":152.2033,"ARG_OF_PERICENTER":43.39,"MEAN_ANOMALY":316.7434,"EPHEMERIS_TYPE":0,"CLASSIFICATION_TYPE":"U","NORAD_CAT_ID":62688,"ELEMENT_SET_NO":999,"REV_AT_EPOCH":6376,"BSTAR":0.00037313027,"MEAN_MOTION_DOT":0.00010452,"MEAN_MOTION_DDOT":0}]
